SL-14 R/B               
1 20262U 89080C   25304.25768047  .00000344  00000+0  94062-4 0  9995
2 20262  82.5910 256.2836 1231508 120.6189 252.2181 12.50370137643977
DELTA 1 R/B             
1 20323U 89089B   25304.21618595  .00000447  00000+0  11952-3 0  9990
2 20323  97.0799 167.1847 0069377 170.5075 189.7453 14.50518573876966
ARIANE 40 R/B           
1 20443U 90005H   25304.13834045  .00000408  00000+0  14383-3 0  9992
2 20443  98.3302   3.5084 0009261 230.0505 129.9870 14.39748138874163
DELTA 2 R/B(1)          
1 20453U 90008B   25304.24719796  .00042976  00000+0  77144-3 0  9993
2 20453  35.6069 294.1149 0118374 152.2396 208.4717 15.41360453906069
COSMOS 2058             
1 20465U 90010A   25304.22064546  .00004591  00000+0  28054-3 0  9990
2 20465  82.4697 174.8520 0011512  58.9672 301.2686 15.09999249922690
SL-14 R/B               
1 20466U 90010B   25304.31792244  .00000638  00000+0  74674-4 0  9992
2 20466  82.5053  28.8797 0020045  10.6727 349.4909 14.83412302909305
SL-14 R/B               
1 20511U 90018B   25304.14377790  .00000558  00000+0  67256-4 0  9996
2 20511  82.5222 344.1812 0017106 153.7873 206.4211 14.81986945903399
HST                     
1 20580U 90037B   25304.00141855  .00010055  00000+0  35776-3 0  9993
2 20580  28.4669 203.2120 0002031 113.4940 246.5868 15.27238201753454
SL-16 R/B               
1 20625U 90046B   25304.18885215  .00000031  00000+0  40460-4 0  9997
2 20625  70.9999 209.8798 0012773 149.5230 210.6638 14.14992285830076
COSMOS 2084             
1 20663U 90055A   25304.23884093  .00005134  00000+0  37187-3 0  9998
2 20663  62.7910  56.7661 0038846 169.6769 190.5138 15.04626371916837
SL-6 R/B(2)             
1 20666U 90055D   25304.31803064  .00002970  00000+0  23537-3 0  9998
2 20666  62.7845 333.5245 0010687 270.3574  89.6301 15.02760633918748
SL-8 R/B                
1 20775U 90078B   25304.13955228  .00019959  00000+0  61712-3 0  9996
2 20775  82.9089   7.3582 0383306  88.2012 276.3055 14.83777797790057
SL-8 R/B                
1 21088U 91006B   25304.26843123  .00000176  00000+0  16158-3 0  9995
2 21088  82.9397 266.3075 0023513  40.5207  71.6647 13.77480377746252
OKEAN-3                 
1 21397U 91039A   25303.89991364  .00004693  00000+0  33983-3 0  9996
2 21397  82.5134 102.4980 0015831  55.9438 304.3289 15.03680630845528
COSMOS 2151             
1 21422U 91042A   25304.25132587  .00002402  00000+0  19351-3 0  9993
2 21422  82.4992 208.4333 0013751 130.7116 229.5304 14.99453683843794
SL-14 R/B               
1 21423U 91042B   25304.16978648  .00000542  00000+0  65863-4 0  9993
2 21423  82.4937 341.6472 0015810 310.2154  49.7675 14.81681804833895
ERS-1                   
1 21574U 91050A   25304.26248611  .00000432  00000+0  15335-3 0  9996
2 21574  98.7932 314.2491 0031233 224.8835 134.9826 14.39315119797112
ARIANE 40 R/B           
1 21610U 91050F   25304.13575111  .00000457  00000+0  14979-3 0  9991
2 21610  98.2228 356.0914 0004363 104.0322 256.1354 14.42757922800310
INTERCOSMOS 25          
1 21819U 91086A   25304.27994580  .00001626  00000+0  31421-3 0  9991
2 21819  82.6088  28.2337 1488903  35.8915 333.3491 12.11549087481012
SL-8 R/B                
1 21876U 92008B   25304.28599516  .00000100  00000+0  87252-4 0  9990
2 21876  82.9301   4.0213 0035791 134.7129 292.4405 13.75946429691621
SL-8 R/B                
1 21938U 92020B   25304.29757747  .00000070  00000+0  57234-4 0  9999
2 21938  82.9295 249.8330 0027859 300.8737 169.0073 13.75519722683340
USA 81                  
1 21949U 92023A   25304.13982552  .00000255  00000+0  87161-4 0  9998
2 21949  85.0116 206.1363 0002750  87.3815 272.7692 14.32303357 76240
COSMOS 2219             
1 22219U 92076A   25304.28104902  .00000437  00000+0  25402-3 0  9999
2 22219  71.0594 288.5858 0016902  32.1827 328.0324 14.14057091700088
SL-16 R/B               
1 22220U 92076B   25303.50862620  .00000118  00000+0  82895-4 0  9999
2 22220  70.9978 102.5937 0014952 290.1614 126.7378 14.16829103703392
COSMOS 2221             
1 22236U 92080A   25304.26761113  .00003042  00000+0  27206-3 0  9993
2 22236  82.5063  42.9603 0013200 266.8104  93.1607 14.95503920761444
SL-16 R/B               
1 22285U 92093B   25304.27063133 -.00000109  00000+0 -31564-4 0  9995
2 22285  71.0201 275.9444 0003517 178.5886 181.5248 14.15417768694840
COSMOS 2228             
1 22286U 92094A   25304.23389983  .00003495  00000+0  30489-3 0  9990
2 22286  82.5209   1.1963 0018595  22.6843 337.5197 14.96444961756697
SL-16 R/B               
1 22566U 93016B   25303.94477734 -.00000152  00000+0 -53660-4 0  9991
2 22566  71.0054 127.6829 0009673 174.2983 185.8252 14.15279671683814
COSMOS 2242             
1 22626U 93024A   25304.29588175  .00002863  00000+0  25340-3 0  9990
2 22626  82.5218  30.3967 0016996  25.2798 334.9252 14.95844181761049
SL-16 R/B               
1 22803U 93059B   25304.31216054 -.00000095  00000+0 -23267-4 0  9996
2 22803  70.9893 283.9529 0015498  41.0314 319.1972 14.17202710661203
ARIANE 40 R/B           
1 22830U 93061H   25304.15894179  .00000324  00000+0  13483-3 0  9992
2 22830  98.5127  10.4535 0009766 311.4293  48.6052 14.32760915675559
COSMOS 2278             
1 23087U 94023A   25303.88846106 -.00000044  00000+0  16973-5 0  9991
2 23087  71.0516  86.6581 0010639 235.3615 124.6505 14.14330966626453
SL-16 R/B               
1 23088U 94023B   25304.27717609  .00000138  00000+0  95680-4 0  9995
2 23088  71.0014 342.6618 0002183 180.4469 179.6653 14.14991715627781
SL-16 R/B               
1 23343U 94074B   25304.05823362  .00000702  00000+0  10124-3 0  9991
2 23343  97.7262 335.0473 0005179 287.7156 125.4341 14.79215132668086
SL-16 R/B               
1 23405U 94077B   25304.30923501 -.00000084  00000+0 -18491-4 0  9998
2 23405  70.9815 264.6739 0003458 317.7170  42.3686 14.15538240597923
ARIANE 40+ R/B          
1 23561U 95021B   25304.20234377  .00000428  00000+0  15075-3 0  9990
2 23561  98.4700  12.2955 0007166 161.5084 259.9619 14.39644540600610
SL-16 R/B               
1 23705U 95058B   25303.81513618  .00000343  00000+0  19963-3 0  9990
2 23705  71.0197  92.9204 0014118 311.1636  48.8269 14.15470295549470
SL-16 R/B               
1 24298U 96051B   25303.78280459 -.00000063  00000+0 -71847-5 0  9994
2 24298  70.7586  90.2048 0017247 316.5109  43.4649 14.12392410503307
ORBVIEW 2 (SEASTAR)     
1 24883U 97037A   25304.04549349  .00000481  00000+0  18389-3 0  9997
2 24883  98.8440 100.0522 0003242  86.0963 274.0592 14.35367781489873
SL-16 R/B               
1 25400U 98043G   25304.27842564  .00000128  00000+0  72348-4 0  9995
2 25400  98.8048 251.8747 0010496  35.0095 325.1772 14.26009215420548
SL-16 R/B               
1 25407U 98045B   25303.81917879  .00000336  00000+0  19398-3 0  9991
2 25407  71.0095  94.6838 0009124 233.5537 126.4746 14.16164252408716
ISS (ZARYA)             
1 25544U 98067A   25304.16626396  .00017194  00000+0  31236-3 0  9992
2 25544  51.6343 353.2496 0004910 359.9780   0.1208 15.49645314536255
CZ-4B R/B               
1 25732U 99025C   25304.13774272  .00000081  00000+0  60153-4 0  9998
2 25732  98.6836 346.3566 0037038 359.2315  65.3273 14.18227598369802
OKEAN-O                 
1 25860U 99039A   25304.13159846  .00000977  00000+0  13588-3 0  9992
2 25860  97.9665   0.1904 0001781  76.4570 283.6840 14.80052223415227
SL-16 R/B               
1 25861U 99039B   25304.16787440  .00000820  00000+0  11145-3 0  9997
2 25861  98.0189 358.3037 0013947 321.9569  38.0657 14.81493879417686
DELTA 2 R/B             
1 25876U 99041E   25302.87765415  .00000788  00000+0  16573-3 0  9993
2 25876  51.7628 103.5068 0504594 322.4927  34.1772 14.11249873344553
HELIOS 1B               
1 25977U 99064A   25304.28025805  .00002529  00000+0  28870-3 0  9997
2 25977  98.1757 197.6938 0002472 100.1220 260.0274 14.87019308666025
TERRA                   
1 25994U 99068A   25304.27228106  .00000683  00000+0  14877-3 0  9999
2 25994  97.9811 357.5005 0001486 198.7581 236.9936 14.60877386376182
SL-16 R/B               
1 26070U 00006B   25304.29553297  .00000342  00000+0  19814-3 0  9991
2 26070  71.0044   9.9029 0016023  10.8123 349.3341 14.15797234330241
TITAN 4B R/B            
1 26474U 00047B   25304.30941808  .00006267  00000+0  40264-3 0  9990
2 26474  67.9910  43.9789 0043230 193.4000 166.6005 15.08308043373397
ENVISAT                 
1 27386U 02009A   25303.85785759  .00000218  00000+0  84549-4 0  9998
2 27386  98.3525 255.7015 0001350  84.9381 303.3349 14.38974956240509
IDEFIX & ARIANE 42P R/B 
1 27422U 02021B   25304.27874167  .00000430  00000+0  18028-3 0  9996
2 27422  98.5717 239.5360 0011151 203.9066 156.1601 14.30902792225511
AQUA                    
1 27424U 02022A   25304.25712972  .00001619  00000+0  33529-3 0  9995
2 27424  98.3971 264.4652 0001315  50.4640  53.7186 14.61653471249829
CZ-4B R/B               
1 27432U 02024C   25304.13341473  .00000065  00000+0  56547-4 0  9997
2 27432  98.9066 353.0400 0050656  31.9648  26.1398 14.14514681210924
MIDORI II (ADEOS-II)    
1 27597U 02056A   25304.28951709  .00000421  00000+0  18376-3 0  9992
2 27597  98.7563 257.0390 0001822  51.1567 308.9777 14.29160939191819
H-2A R/B                
1 27601U 02056E   25304.32912500  .00000402  00000+0  15554-3 0  9993
2 27601  98.2996 264.7900 0070058 186.1172 298.5942 14.33630456195576
CZ-4B R/B               
1 28059U 03049C   25304.23050095  .00000624  00000+0  15514-3 0  9998
2 28059  98.6758 289.1954 0047079 266.8472  92.7337 14.54848111167775
CZ-2C R/B               
1 28222U 04012C   25304.03624989  .00044171  00000+0  73255-3 0  9999
2 28222  97.7502 353.2429 0020693  68.8801 291.4660 15.51768417184092
SL-16 R/B               
1 28353U 04021B   25303.98121425 -.00000219  00000+0 -88945-4 0  9994
2 28353  70.9979 144.6948 0007157 246.7163 113.3207 14.14570527104490
